STARLINK-35646          
1 66859U 25281M   26139.16748504  .00010812  00000+0  40168-3 0  9991
2 66859  43.0014 305.4991 0001464 262.5550  97.5135 15.27592376 26969
STARLINK-35987          
1 66860U 25281N   26139.15078084  .00010516  00000+0  39100-3 0  9996
2 66860  43.0003 305.3707 0001658 266.5710  93.4952 15.27589603 26961
STARLINK-35991          
1 66861U 25281P   26138.74947067  .00016187  00000+0  59633-3 0  9990
2 66861  43.0015 307.5219 0001585 258.6071 101.4602 15.27587039 26905
STARLINK-35974          
1 66862U 25281Q   26139.16363246  .00010417  00000+0  38743-3 0  9998
2 66862  43.0002 305.4683 0001469 263.0856  96.9829 15.27589028 26961
STARLINK-36134          
1 66863U 25281R   26138.80459131  .00016563  00000+0  61066-3 0  9990
2 66863  43.0020 307.0690 0001608 277.0287  83.0382 15.27547154 26916
STARLINK-36070          
1 66864U 25281S   26139.18290337  .00010547  00000+0  39224-3 0  9991
2 66864  43.0051 305.6208 0001989 281.3765  78.6863 15.27580289 26966
STARLINK-36117          
1 66865U 25281T   26138.81227319  .00028134  00000+0  10267-2 0  9997
2 66865  43.0006 307.1293 0001537 253.4875 106.5808 15.27619940 26911
STARLINK-36126          
1 66866U 25281U   26138.73676635  .00011195  00000+0  41569-3 0  9997
2 66866  43.0041 308.2891 0002263 268.6968  91.3624 15.27582800 26882
STARLINK-36101          
1 66867U 25281V   26139.19061109  .00012086  00000+0  44781-3 0  9992
2 66867  43.0014 305.6746 0002921 271.0673  88.9844 15.27592710 26950
STARLINK-36108          
1 66868U 25281W   26139.18676285  .00010885  00000+0  40439-3 0  9990
2 66868  43.0034 305.6486 0001938 265.0632  94.9999 15.27587073 26953
STARLINK-36092          
1 66869U 25281X   26139.18033765  .00010412  00000+0  38726-3 0  9993
2 66869  43.0033 305.5960 0001646 261.1718  98.8948 15.27587586 26953
STARLINK-36114          
1 66870U 25281Y   26139.17648292  .00011966  00000+0  44352-3 0  9998
2 66870  42.9995 305.5700 0001399 268.5118  91.5574 15.27590061 26959
STARLINK-36095          
1 66871U 25281Z   26139.17262069  .00014877  00000+0  54906-3 0  9993
2 66871  42.9991 305.5361 0000905 281.6260  78.4490 15.27580536 26941
STARLINK-36082          
1 66872U 25281AA  26139.16876896  .00009387  00000+0  35010-3 0  9997
2 66872  43.0018 305.5054 0001312 266.5360  93.5341 15.27590423 26959
STARLINK-36128          
1 66873U 25281AB  26139.15850167  .00012518  00000+0  46337-3 0  9994
2 66873  43.0008 305.4258 0001933 285.2310  74.8328 15.27598692 26904
STARLINK-36129          
1 66874U 25281AC  26139.16491657  .00009259  00000+0  34550-3 0  9993
2 66874  43.0011 305.4753 0001468 263.5605  96.5080 15.27587934 26956
STARLINK-36053          
1 66875U 25281AD  26139.15463728  .00010170  00000+0  37850-3 0  9991
2 66875  43.0007 305.3948 0001288 263.3841  96.6864 15.27588220 26902
STARLINK-35702          
1 66876U 25281AE  26139.16105421  .00009729  00000+0  36242-3 0  9998
2 66876  43.0045 305.4445 0001186 273.6107  86.4609 15.27596569 26958
STARLINK-35866          
1 66878U 25283A   26139.08617719  .00017544  00000+0  60285-3 0  9999
2 66878  53.1603  57.0792 0001066 107.0341 253.0776 15.30211232 26620
STARLINK-35749          
1 66879U 25283B   26139.07457023  .00013070  00000+0  45242-3 0  9995
2 66879  53.1595  57.0061 0001305 105.7289 254.3856 15.30215092 26623
STARLINK-35844          
1 66880U 25283C   26139.14516163  .00013145  00000+0  45505-3 0  9991
2 66880  53.1593  56.7374 0001212  89.5831 270.5309 15.30206813 26630
STARLINK-35860          
1 66881U 25283D   26139.06823756  .00010830  00000+0  37713-3 0  9992
2 66881  53.1589  56.9637 0001259  68.3633 291.7502 15.30211105 26625
STARLINK-35912          
1 66882U 25283E   26139.07725257  .00018884  00000+0  56862-3 0  9994
2 66882  53.1596  57.0294 0001201  89.6205 270.4935 15.34399853 26628
STARLINK-35947          
1 66883U 25283F   26139.15080027  .00020966  00000+0  62978-3 0  9992
2 66883  53.1606  56.7738 0000694 105.3862 254.7217 15.34407067 26658
STARLINK-36057          
1 66884U 25283G   26139.17998311  .00009445  00000+0  33056-3 0  9993
2 66884  53.1612  56.9549 0001116  89.4275 270.6854 15.30206043 26637
STARLINK-35954          
1 66885U 25283H   26139.03946856  .00020496  00000+0  61609-3 0  9990
2 66885  53.1629  57.5005 0001033  88.1970 271.9151 15.34400113 26616
STARLINK-35900          
1 66886U 25283J   26139.09615354  .00289636  00000+0  83411-2 0  9990
2 66886  53.1608  57.1419 0001290 106.7679 253.3465 15.34082238 26624
STARLINK-35925          
1 66887U 25283K   26139.03880224  .00007887  00000+0  27809-3 0  9991
2 66887  53.1660  57.4949 0000921  72.3406 287.7696 15.30203667 26613
STARLINK-35919          
1 66888U 25283L   26139.03563665  .00009686  00000+0  33865-3 0  9997
2 66888  53.1618  57.4697 0001566 103.9417 256.1758 15.30207215 26618
STARLINK-35852          
1 66889U 25283M   26139.25001157  .00044339  00000+0  13517-2 0  9990
2 66889  53.1605  56.3888 0001178  66.9705  80.0939 15.33544206  5824
