OBJECT_NAME,OBJECT_ID,EPOCH,MEAN_MOTION,ECCENTRICITY,INCLINATION,RA_OF_ASC_NODE,ARG_OF_PERICENTER,MEAN_ANOMALY,EPHEMERIS_TYPE,CLASSIFICATION_TYPE,NORAD_CAT_ID,ELEMENT_SET_NO,REV_AT_EPOCH,BSTAR,MEAN_MOTION_DOT,MEAN_MOTION_DDOT
STARLINK-35646,2025-281M,2026-05-19T04:01:10.707456,15.27592376,.00014641,43.0014,305.4991,262.5550,97.5135,0,U,66859,999,2696,.40167868E-3,.10812E-3,0
STARLINK-35987,2025-281N,2026-05-19T03:37:07.464576,15.27589603,.00016587,43.0003,305.3707,266.5710,93.4952,0,U,66860,999,2696,.39099893E-3,.10516E-3,0
STARLINK-35991,2025-281P,2026-05-18T17:59:14.265888,15.27587039,.00015852,43.0015,307.5219,258.6071,101.4602,0,U,66861,999,2690,.59633332E-3,.16187E-3,0
STARLINK-35974,2025-281Q,2026-05-19T03:55:37.844544,15.27589028,.00014691,43.0002,305.4683,263.0856,96.9829,0,U,66862,999,2696,.38743433E-3,.10417E-3,0
STARLINK-36134,2025-281R,2026-05-18T19:18:36.689184,15.27547154,.00016085,43.0020,307.0690,277.0287,83.0382,0,U,66863,999,2691,.61065914E-3,.16563E-3,0
STARLINK-36070,2025-281S,2026-05-19T04:23:22.851168,15.27580289,.00019895,43.0051,305.6208,281.3765,78.6863,0,U,66864,999,2696,.39223596E-3,.10547E-3,0
STARLINK-36117,2025-281T,2026-05-18T19:29:40.403616,15.27619940,.00015376,43.0006,307.1293,253.4875,106.5808,0,U,66865,999,2691,.10267469E-2,.28134E-3,0
STARLINK-36126,2025-281U,2026-05-18T17:40:56.612640,15.27582800,.00022639,43.0041,308.2891,268.6968,91.3624,0,U,66866,999,2688,.41569241E-3,.11195E-3,0
STARLINK-36101,2025-281V,2026-05-19T04:34:28.798176,15.27592710,.00029215,43.0014,305.6746,271.0673,88.9844,0,U,66867,999,2695,.44780662E-3,.12086E-3,0
STARLINK-36108,2025-281W,2026-05-19T04:28:56.310240,15.27587073,.00019388,43.0034,305.6486,265.0632,94.9999,0,U,66868,999,2695,.40439335E-3,.10885E-3,0
STARLINK-36092,2025-281X,2026-05-19T04:19:41.172960,15.27587586,.00016462,43.0033,305.5960,261.1718,98.8948,0,U,66869,999,2695,.3872637E-3,.10412E-3,0
STARLINK-36114,2025-281Y,2026-05-19T04:14:08.124288,15.27590061,.00013993,42.9995,305.5700,268.5118,91.5574,0,U,66870,999,2695,.44351979E-3,.11966E-3,0
STARLINK-36095,2025-281Z,2026-05-19T04:08:34.427616,15.27580536,.00009056,42.9991,305.5361,281.6260,78.4490,0,U,66871,999,2694,.54905536E-3,.14877E-3,0
STARLINK-36082,2025-281AA,2026-05-19T04:03:01.638144,15.27590423,.00013124,43.0018,305.5054,266.5360,93.5341,0,U,66872,999,2695,.35009625E-3,.9387E-4,0
STARLINK-36128,2025-281AB,2026-05-19T03:48:14.544288,15.27598692,.0001933,43.0008,305.4258,285.2310,74.8328,0,U,66873,999,2690,.46336594E-3,.12518E-3,0
STARLINK-36129,2025-281AC,2026-05-19T03:57:28.791648,15.27587934,.00014685,43.0011,305.4753,263.5605,96.5080,0,U,66874,999,2695,.34549612E-3,.9259E-4,0
STARLINK-36053,2025-281AD,2026-05-19T03:42:40.660992,15.27588220,.00012881,43.0007,305.3948,263.3841,96.6864,0,U,66875,999,2690,.37849843E-3,.1017E-3,0
STARLINK-35702,2025-281AE,2026-05-19T03:51:55.083744,15.27596569,.00011863,43.0045,305.4445,273.6107,86.4609,0,U,66876,999,2695,.3624231E-3,.9729E-4,0
STARLINK-35866,2025-283A,2026-05-19T02:04:05.709216,15.30211232,.00010665,53.1603,57.0792,107.0341,253.0776,0,U,66878,999,2662,.60285337E-3,.17544E-3,0
STARLINK-35749,2025-283B,2026-05-19T01:47:22.867872,15.30215092,.0001305,53.1595,57.0061,105.7289,254.3856,0,U,66879,999,2662,.45242493E-3,.1307E-3,0
STARLINK-35844,2025-283C,2026-05-19T03:29:01.964832,15.30206813,.00012126,53.1593,56.7374,89.5831,270.5309,0,U,66880,999,2663,.45505166E-3,.13145E-3,0
STARLINK-35860,2025-283D,2026-05-19T01:38:15.725184,15.30211105,.00012595,53.1589,56.9637,68.3633,291.7502,0,U,66881,999,2662,.37712783E-3,.1083E-3,0
STARLINK-35912,2025-283E,2026-05-19T01:51:14.622048,15.34399853,.00012017,53.1596,57.0294,89.6205,270.4935,0,U,66882,999,2662,.56862187E-3,.18884E-3,0
STARLINK-35947,2025-283F,2026-05-19T03:37:09.143328,15.34407067,.00006943,53.1606,56.7738,105.3862,254.7217,0,U,66883,999,2665,.62978186E-3,.20966E-3,0
STARLINK-36057,2025-283G,2026-05-19T04:19:10.540704,15.30206043,.00011166,53.1612,56.9549,89.4275,270.6854,0,U,66884,999,2663,.33055694E-3,.9445E-4,0
STARLINK-35954,2025-283H,2026-05-19T00:56:50.083584,15.34400113,.00010334,53.1629,57.5005,88.1970,271.9151,0,U,66885,999,2661,.61608956E-3,.20496E-3,0
STARLINK-35900,2025-283J,2026-05-19T02:18:27.665856,15.34082238,.00012902,53.1608,57.1419,106.7679,253.3465,0,U,66886,999,2662,.83410997E-2,.289636E-2,0
STARLINK-35925,2025-283K,2026-05-19T00:55:52.513536,15.30203667,.00009218,53.1660,57.4949,72.3406,287.7696,0,U,66887,999,2661,.2780869E-3,.7887E-4,0
STARLINK-35919,2025-283L,2026-05-19T00:51:19.006560,15.30207215,.00015662,53.1618,57.4697,103.9417,256.1758,0,U,66888,999,2661,.338646E-3,.9686E-4,0
STARLINK-35852,2025-283M,2026-05-19T06:00:00.999648,15.33544206,.00011782,53.1605,56.3888,66.9705,80.0939,0,U,66889,999,582,.13517252E-2,.44339E-3,0
